{
  "type": "FeatureCollection",
  "features": [
    {
      "type": "Feature",
      "properties": {
        "norad_id": 67011,
        "name": "STARLINK-36167",
        "group": "last-30-days",
        "lat": 47.92278524968511,
        "lon": 95.29743065468094,
        "alt_km": 299.36212037997484,
        "timestamp": "2025-12-21T05:44:50.293871+00:00",
        "meta_object_name": "STARLINK-36167",
        "meta_object_id": "2025-293J",
        "meta_epoch": "2025-12-20T22:00:01.999584",
        "meta_mean_motion": 15.9079085,
        "meta_eccentricity": 0.00039357,
        "meta_inclination": 69.9937,
        "meta_ra_of_asc_node": 300.0342,
        "meta_arg_of_pericenter": 266.4193,
        "meta_mean_anomaly": 173.8923,
        "meta_ephemeris_type": 0,
        "meta_classification_type": "U",
        "meta_norad_cat_id": 67011,
        "meta_element_set_no": 999,
        "meta_rev_at_epoch": 143,
        "meta_bstar": -0.0041716113,
        "meta_mean_motion_dot": -0.01298712,
        "meta_mean_motion_ddot": 0.00048386447,
        "tle_line1": "1 67011U 25293J   25354.91668981 -.01298712  48386-3 -41716-2 0  9998",
        "tle_line2": "2 67011  69.9937 300.0342 0003935 266.4193 173.8923 15.90790850  1438"
      },
      "geometry": {
        "type": "Point",
        "coordinates": [
          95.29743065468094,
          47.92278524968511
        ]
      }
    },
    {
      "type": "Feature",
      "properties": {
        "norad_id": 67012,
        "name": "STARLINK-36175",
        "group": "last-30-days",
        "lat": 43.56987548727664,
        "lon": 98.81317547236715,
        "alt_km": 299.7216900840949,
        "timestamp": "2025-12-21T05:44:50.293900+00:00",
        "meta_object_name": "STARLINK-36175",
        "meta_object_id": "2025-293K",
        "meta_epoch": "2025-12-20T22:00:01.999584",
        "meta_mean_motion": 15.90856863,
        "meta_eccentricity": 0.00039385,
        "meta_inclination": 69.9937,
        "meta_ra_of_asc_node": 300.0287,
        "meta_arg_of_pericenter": 267.601,
        "meta_mean_anomaly": 177.6281,
        "meta_ephemeris_type": 0,
        "meta_classification_type": "U",
        "meta_norad_cat_id": 67012,
        "meta_element_set_no": 999,
        "meta_rev_at_epoch": 143,
        "meta_bstar": -0.0041804547,
        "meta_mean_motion_dot": -0.01305775,
        "meta_mean_motion_ddot": 0.00048904621,
        "tle_line1": "1 67012U 25293K   25354.91668981 -.01305775  48905-3 -41805-2 0  9993",
        "tle_line2": "2 67012  69.9937 300.0287 0003938 267.6010 177.6281 15.90856863  1437"
      },
      "geometry": {
        "type": "Point",
        "coordinates": [
          98.81317547236715,
          43.56987548727664
        ]
      }
    },
    {
      "type": "Feature",
      "properties": {
        "norad_id": 67013,
        "name": "STARLINK-35856",
        "group": "last-30-days",
        "lat": 41.16198415558674,
        "lon": 100.51462375321755,
        "alt_km": 299.8982886431204,
        "timestamp": "2025-12-21T05:44:50.293911+00:00",
        "meta_object_name": "STARLINK-35856",
        "meta_object_id": "2025-293L",
        "meta_epoch": "2025-12-20T22:00:01.999584",
        "meta_mean_motion": 15.90891207,
        "meta_eccentricity": 0.00039315,
        "meta_inclination": 69.9935,
        "meta_ra_of_asc_node": 300.0253,
        "meta_arg_of_pericenter": 267.1569,
        "meta_mean_anomaly": 180.7493,
        "meta_ephemeris_type": 0,
        "meta_classification_type": "U",
        "meta_norad_cat_id": 67013,
        "meta_element_set_no": 999,
        "meta_rev_at_epoch": 143,
        "meta_bstar": -0.0041922997,
        "meta_mean_motion_dot": -0.01311704,
        "meta_mean_motion_ddot": 0.00049331699,
        "tle_line1": "1 67013U 25293L   25354.91668981 -.01311704  49332-3 -41923-2 0  9999",
        "tle_line2": "2 67013  69.9935 300.0253 0003931 267.1569 180.7493 15.90891207  1437"
      },
      "geometry": {
        "type": "Point",
        "coordinates": [
          100.51462375321755,
          41.16198415558674
        ]
      }
    },
    {
      "type": "Feature",
      "properties": {
        "norad_id": 67014,
        "name": "STARLINK-36207",
        "group": "last-30-days",
        "lat": 38.887478211561614,
        "lon": 101.99775874944058,
        "alt_km": 300.1839251575584,
        "timestamp": "2025-12-21T05:44:50.293921+00:00",
        "meta_object_name": "STARLINK-36207",
        "meta_object_id": "2025-293M",
        "meta_epoch": "2025-12-20T22:00:01.999584",
        "meta_mean_motion": 15.90926616,
        "meta_eccentricity": 0.00039697,
        "meta_inclination": 69.9941,
        "meta_ra_of_asc_node": 300.0226,
        "meta_arg_of_pericenter": 269.6241,
        "meta_mean_anomaly": 180.7828,
        "meta_ephemeris_type": 0,
        "meta_classification_type": "U",
        "meta_norad_cat_id": 67014,
        "meta_element_set_no": 999,
        "meta_rev_at_epoch": 149,
        "meta_bstar": -0.0042026231,
        "meta_mean_motion_dot": -0.01317269,
        "meta_mean_motion_ddot": 0.00049735742,
        "tle_line1": "1 67014U 25293M   25354.91668981 -.01317269  49736-3 -42026-2 0  9995",
        "tle_line2": "2 67014  69.9941 300.0226 0003969 269.6241 180.7828 15.90926616  1491"
      },
      "geometry": {
        "type": "Point",
        "coordinates": [
          101.99775874944058,
          38.887478211561614
        ]
      }
    },
    {
      "type": "Feature",
      "properties": {
        "norad_id": 67015,
        "name": "STARLINK-36093",
        "group": "last-30-days",
        "lat": 34.35315696974908,
        "lon": 104.6597926217005,
        "alt_km": 300.4912835448931,
        "timestamp": "2025-12-21T05:44:50.293933+00:00",
        "meta_object_name": "STARLINK-36093",
        "meta_object_id": "2025-293N",
        "meta_epoch": "2025-12-20T22:00:01.999584",
        "meta_mean_motion": 15.90993973,
        "meta_eccentricity": 0.00039875,
        "meta_inclination": 69.9936,
        "meta_ra_of_asc_node": 300.0164,
        "meta_arg_of_pericenter": 267.5601,
        "meta_mean_anomaly": 187.7835,
        "meta_ephemeris_type": 0,
        "meta_classification_type": "U",
        "meta_norad_cat_id": 67015,
        "meta_element_set_no": 999,
        "meta_rev_at_epoch": 143,
        "meta_bstar": -0.0042262134,
        "meta_mean_motion_dot": -0.01329107,
        "meta_mean_motion_ddot": 0.00050596949,
        "tle_line1": "1 67015U 25293N   25354.91668981 -.01329107  50597-3 -42262-2 0  9999",
        "tle_line2": "2 67015  69.9936 300.0164 0003987 267.5601 187.7835 15.90993973  1433"
      },
      "geometry": {
        "type": "Point",
        "coordinates": [
          104.6597926217005,
          34.35315696974908
        ]
      }
    },
    {
      "type": "Feature",
      "properties": {
        "norad_id": 67016,
        "name": "STARLINK-36120",
        "group": "last-30-days",
        "lat": 36.767742048932696,
        "lon": 103.28554759286543,
        "alt_km": 300.2362113985737,
        "timestamp": "2025-12-21T05:44:50.293943+00:00",
        "meta_object_name": "STARLINK-36120",
        "meta_object_id": "2025-293P",
        "meta_epoch": "2025-12-20T22:00:01.999584",
        "meta_mean_motion": 15.90961872,
        "meta_eccentricity": 0.00039314,
        "meta_inclination": 69.9937,
        "meta_ra_of_asc_node": 300.0196,
        "meta_arg_of_pericenter": 266.7969,
        "meta_mean_anomaly": 185.9237,
        "meta_ephemeris_type": 0,
        "meta_classification_type": "U",
        "meta_norad_cat_id": 67016,
        "meta_element_set_no": 999,
        "meta_rev_at_epoch": 143,
        "meta_bstar": -0.0042271801,
        "meta_mean_motion_dot": -0.01327229,
        "meta_mean_motion_ddot": 0.000504493,
        "tle_line1": "1 67016U 25293P   25354.91668981 -.01327229  50449-3 -42272-2 0  9990",
        "tle_line2": "2 67016  69.9937 300.0196 0003931 266.7969 185.9237 15.90961872  1436"
      },
      "geometry": {
        "type": "Point",
        "coordinates": [
          103.28554759286543,
          36.767742048932696
        ]
      }
    },
    {
      "type": "Feature",
      "properties": {
        "norad_id": 67017,
        "name": "STARLINK-35498",
        "group": "last-30-days",
        "lat": 32.08954486320222,
        "lon": 105.8707218203119,
        "alt_km": 300.67324725219896,
        "timestamp": "2025-12-21T05:44:50.293955+00:00",
        "meta_object_name": "STARLINK-35498",
        "meta_object_id": "2025-293Q",
        "meta_epoch": "2025-12-20T22:00:01.999584",
        "meta_mean_motion": 15.91032153,
        "meta_eccentricity": 0.00040173,
        "meta_inclination": 69.9934,
        "meta_ra_of_asc_node": 300.0135,
        "meta_arg_of_pericenter": 267.3641,
        "meta_mean_anomaly": 190.4172,
        "meta_ephemeris_type": 0,
        "meta_classification_type": "U",
        "meta_norad_cat_id": 67017,
        "meta_element_set_no": 999,
        "meta_rev_at_epoch": 162,
        "meta_bstar": -0.0042437058,
        "meta_mean_motion_dot": -0.01337142,
        "meta_mean_motion_ddot": 0.00051181912,
        "tle_line1": "1 67017U 25293Q   25354.91668981 -.01337142  51182-3 -42437-2 0  9994",
        "tle_line2": "2 67017  69.9934 300.0135 0004017 267.3641 190.4172 15.91032153  1629"
      },
      "geometry": {
        "type": "Point",
        "coordinates": [
          105.8707218203119,
          32.08954486320222
        ]
      }
    }
  ]
}